HULIANWANG DIGUI-82     
1 65817U 25220A   26159.40065515  .00000064  00000+0  11455-3 0  9995
2 65817  86.4977  46.8269 0001271  83.8647 276.2632 13.24407377 33756
HULIANWANG DIGUI-83     
1 65818U 25220B   26159.39317411  .00000058  00000+0  10030-3 0  9990
2 65818  86.4999  46.8804 0001297  85.2563 274.8719 13.24407705 33752
HULIANWANG DIGUI-84     
1 65819U 25220C   26159.38557801  .00000051  00000+0  84824-4 0  9995
2 65819  86.4936  46.7166 0001300  82.8018 277.3264 13.24407505 33758
HULIANWANG DIGUI-85     
1 65820U 25220D   26159.45353906  .00000040  00000+0  57952-4 0  9995
2 65820  86.4997  46.8434 0001259  79.8045 280.3231 13.24406570 33765
HULIANWANG DIGUI-86     
1 65821U 25220E   26159.44622381  .00000027  00000+0  29695-4 0  9999
2 65821  86.4976  46.7852 0001816  85.7968 274.3373 13.24419032 33762
STARLINK-35392          
1 65823U 25221A   26158.92263107  .00023524  00000+0  80424-3 0  9994
2 65823  53.1588  29.5668 0001284  65.1383 294.9752 15.30183697 39893
STARLINK-35281          
1 65824U 25221B   26159.12174235  .00020679  00000+0  70913-3 0  9991
2 65824  53.1589  28.6754 0001192  89.2725 270.8412 15.30165344 39925
STARLINK-35397          
1 65825U 25221C   26159.13963944  .00023839  00000+0  71473-3 0  9999
2 65825  53.1585  27.3677 0001373  78.0587 282.0569 15.34386337 39946
STARLINK-35381          
1 65826U 25221D   26158.95685079  .00026513  00000+0  79372-3 0  9997
2 65826  53.1611  28.3601 0001225 106.7389 253.3748 15.34372645 39914
STARLINK-35393          
1 65827U 25221E   26158.93370887  .00023666  00000+0  70950-3 0  9993
2 65827  53.1588  28.2085 0001453  29.9955 330.1130 15.34394058 39912
STARLINK-35396          
1 65828U 25221F   26158.90012986  .00026804  00000+0  80210-3 0  9991
2 65828  53.1601  28.7188 0001240  98.8874 261.2269 15.34380390 39907
STARLINK-35244          
1 65829U 25221G   26159.11805254  .00030692  00000+0  10444-2 0  9995
2 65829  53.1601  30.8262 0001460 103.4592 256.6572 15.30192321 39859
STARLINK-35368          
1 65830U 25221H   26158.93106794  .00017967  00000+0  61780-3 0  9999
2 65830  53.1589  29.6195 0001521  96.9358 263.1816 15.30171831 39858
STARLINK-35337          
1 65831U 25221J   26158.92950231  .00021448  00000+0  64474-3 0  9994
2 65831  53.1584  28.1943 0001470 103.7831 256.3335 15.34369045 39912
STARLINK-35277          
1 65832U 25221K   26158.91275277  .00028276  00000+0  84537-3 0  9992
2 65832  53.1606  28.7927 0001025  99.4769 260.6350 15.34380686 39901
STARLINK-35345          
1 65833U 25221L   26159.36660433  .00018350  00000+0  55296-3 0  9997
2 65833  53.1606  26.6482 0001204  93.7171 266.3969 15.34396202 39975
STARLINK-35320          
1 65834U 25221M   26159.24497814  .00015605  00000+0  53835-3 0  9993
2 65834  53.1592  28.0199 0001099 106.9195 253.1926 15.30173063 38594
STARLINK-35349          
1 65835U 25221N   26158.92473836  .00022282  00000+0  76277-3 0  9990
2 65835  53.1581  29.5763 0000829  72.1204 287.9887 15.30174878 38542
STARLINK-35356          
1 65836U 25221P   26158.94045360  .00017259  00000+0  59403-3 0  9990
2 65836  53.1598  28.9628 0001198  93.7359 266.3779 15.30169751 38550
STARLINK-35314          
1 65837U 25221Q   26159.35187745  .00024048  00000+0  72085-3 0  9996
2 65837  53.1610  26.5601 0001034  49.7155 310.3937 15.34388292 38626
STARLINK-35324          
1 65838U 25221R   26158.92791257  .00090295  00000+0  30238-2 0  9998
2 65838  53.1607  29.6024 0001853  91.6844 268.4369 15.30201667 38545
STARLINK-35102          
1 65839U 25221S   26159.36450395  .00019455  00000+0  58546-3 0  9995
2 65839  53.1597  26.6371 0001110  81.3862 278.7267 15.34398737 38627
STARLINK-35364          
1 65840U 25221T   26158.93160263  .00030257  00000+0  90362-3 0  9996
2 65840  53.1573  28.2001 0001346  52.4913 307.6212 15.34379247 38568
STARLINK-35298          
1 65842U 25221V   26158.95264355  .00011777  00000+0  35955-3 0  9990
2 65842  53.1615  28.3294 0001273  95.8364 264.2784 15.34363856 38563
STARLINK-35301          
1 65843U 25221W   26158.81185021  .00024375  00000+0  73079-3 0  9995
2 65843  53.1598  28.8726 0001520  92.9270 267.1907 15.34373741 38549
STARLINK-35148          
1 65844U 25221X   26158.94002220  .00031453  00000+0  93918-3 0  9998
2 65844  53.1601  28.2550 0000931 100.0099 260.1009 15.34364401 38560
STARLINK-35302          
1 65845U 25221Y   26158.93581141  .00027977  00000+0  83662-3 0  9993
2 65845  53.1593  28.2278 0000829  76.9431 283.1664 15.34378742 38560
STARLINK-35290          
1 65846U 25221Z   26159.36029631  .00022636  00000+0  67942-3 0  9993
2 65846  53.1593  26.6075 0001503  85.9294 274.1880 15.34382815 38628
STARLINK-35262          
1 65847U 25221AA  26158.93318019  .00024996  00000+0  85384-3 0  9998
2 65847  53.1577  29.6269 0001115  89.7758 270.3371 15.30176900 39890
STARLINK-35308          
1 65848U 25221AB  26159.34135641  .00026966  00000+0  80656-3 0  9999
2 65848  53.1618  26.4887 0000884  97.1773 262.9330 15.34391820 39975
