OBJECT_NAME,OBJECT_ID,EPOCH,MEAN_MOTION,ECCENTRICITY,INCLINATION,RA_OF_ASC_NODE,ARG_OF_PERICENTER,MEAN_ANOMALY,EPHEMERIS_TYPE,CLASSIFICATION_TYPE,NORAD_CAT_ID,ELEMENT_SET_NO,REV_AT_EPOCH,BSTAR,MEAN_MOTION_DOT,MEAN_MOTION_DDOT
HULIANWANG DIGUI-82,2025-220A,2026-06-08T09:36:56.604960,13.24407377,.0001271,86.4977,46.8269,83.8647,276.2632,0,U,65817,999,3375,.11455E-3,.64E-6,0
HULIANWANG DIGUI-83,2025-220B,2026-06-08T09:26:10.243104,13.24407705,.0001297,86.4999,46.8804,85.2563,274.8719,0,U,65818,999,3375,.1003E-3,.58E-6,0
HULIANWANG DIGUI-84,2025-220C,2026-06-08T09:15:13.940064,13.24407505,.00013,86.4936,46.7166,82.8018,277.3264,0,U,65819,999,3375,.84824E-4,.51E-6,0
HULIANWANG DIGUI-85,2025-220D,2026-06-08T10:53:05.774784,13.24406570,.0001259,86.4997,46.8434,79.8045,280.3231,0,U,65820,999,3376,.57952E-4,.4E-6,0
HULIANWANG DIGUI-86,2025-220E,2026-06-08T10:42:33.737184,13.24419032,.0001816,86.4976,46.7852,85.7968,274.3373,0,U,65821,999,3376,.29695E-4,.27E-6,0
STARLINK-35392,2025-221A,2026-06-07T22:08:35.324448,15.30183697,.00012849,53.1588,29.5668,65.1383,294.9752,0,U,65823,999,3989,.80424293E-3,.23524E-3,0
STARLINK-35281,2025-221B,2026-06-08T02:55:18.539040,15.30165344,.00011924,53.1589,28.6754,89.2725,270.8412,0,U,65824,999,3992,.709127E-3,.20679E-3,0
STARLINK-35397,2025-221C,2026-06-08T03:21:04.847616,15.34386337,.00013736,53.1585,27.3677,78.0587,282.0569,0,U,65825,999,3994,.71473438E-3,.23839E-3,0
STARLINK-35381,2025-221D,2026-06-07T22:57:51.908256,15.34372645,.00012256,53.1611,28.3601,106.7389,253.3748,0,U,65826,999,3991,.79372457E-3,.26513E-3,0
STARLINK-35393,2025-221E,2026-06-07T22:24:32.446368,15.34394058,.00014536,53.1588,28.2085,29.9955,330.1130,0,U,65827,999,3991,.70949649E-3,.23666E-3,0
STARLINK-35396,2025-221F,2026-06-07T21:36:11.219904,15.34380390,.00012405,53.1601,28.7188,98.8874,261.2269,0,U,65828,999,3990,.80209511E-3,.26804E-3,0
STARLINK-35244,2025-221G,2026-06-08T02:49:59.739456,15.30192321,.00014609,53.1601,30.8262,103.4592,256.6572,0,U,65829,999,3985,.10443561E-2,.30692E-3,0
STARLINK-35368,2025-221H,2026-06-07T22:20:44.270016,15.30171831,.00015212,53.1589,29.6195,96.9358,263.1816,0,U,65830,999,3985,.61780251E-3,.17967E-3,0
STARLINK-35337,2025-221J,2026-06-07T22:18:28.999584,15.34369045,.00014704,53.1584,28.1943,103.7831,256.3335,0,U,65831,999,3991,.64473512E-3,.21448E-3,0
STARLINK-35277,2025-221K,2026-06-07T21:54:21.839328,15.34380686,.00010256,53.1606,28.7927,99.4769,260.6350,0,U,65832,999,3990,.8453664E-3,.28276E-3,0
STARLINK-35345,2025-221L,2026-06-08T08:47:54.614112,15.34396202,.0001204,53.1606,26.6482,93.7171,266.3969,0,U,65833,999,3997,.55296E-3,.1835E-3,0
STARLINK-35320,2025-221M,2026-06-08T05:52:46.111296,15.30173063,.0001099,53.1592,28.0199,106.9195,253.1926,0,U,65834,999,3859,.53835E-3,.15605E-3,0
STARLINK-35349,2025-221N,2026-06-07T22:11:37.394304,15.30174878,.00008297,53.1581,29.5763,72.1204,287.9887,0,U,65835,999,3854,.76277486E-3,.22282E-3,0
STARLINK-35356,2025-221P,2026-06-07T22:34:15.191040,15.30169751,.00011982,53.1598,28.9628,93.7359,266.3779,0,U,65836,999,3855,.59403241E-3,.17259E-3,0
STARLINK-35314,2025-221Q,2026-06-08T08:26:42.211680,15.34388292,.0001034,53.1610,26.5601,49.7155,310.3937,0,U,65837,999,3862,.72085E-3,.24048E-3,0
STARLINK-35324,2025-221R,2026-06-07T22:16:11.646048,15.30201667,.00018535,53.1607,29.6024,91.6844,268.4369,0,U,65838,999,3854,.30237661E-2,.90295E-3,0
STARLINK-35102,2025-221S,2026-06-08T08:44:53.141280,15.34398737,.000111,53.1597,26.6371,81.3862,278.7267,0,U,65839,999,3862,.58546E-3,.19455E-3,0
STARLINK-35364,2025-221T,2026-06-07T22:21:30.467232,15.34379247,.00013464,53.1573,28.2001,52.4913,307.6212,0,U,65840,999,3856,.90362429E-3,.30257E-3,0
STARLINK-35298,2025-221V,2026-06-07T22:51:48.402720,15.34363856,.00012739,53.1615,28.3294,95.8364,264.2784,0,U,65842,999,3856,.35955288E-3,.11777E-3,0
STARLINK-35301,2025-221W,2026-06-07T19:29:03.858144,15.34373741,.000152,53.1598,28.8726,92.9270,267.1907,0,U,65843,999,3854,.73079E-3,.24375E-3,0
STARLINK-35148,2025-221X,2026-06-07T22:33:37.918080,15.34364401,.00009316,53.1601,28.2550,100.0099,260.1009,0,U,65844,999,3856,.93917977E-3,.31453E-3,0
STARLINK-35302,2025-221Y,2026-06-07T22:27:34.105824,15.34378742,.00008296,53.1593,28.2278,76.9431,283.1664,0,U,65845,999,3856,.8366236E-3,.27977E-3,0
STARLINK-35290,2025-221Z,2026-06-08T08:38:49.601184,15.34382815,.0001503,53.1593,26.6075,85.9294,274.1880,0,U,65846,999,3862,.67942E-3,.22636E-3,0
STARLINK-35262,2025-221AA,2026-06-07T22:23:46.768416,15.30176900,.00011154,53.1577,29.6269,89.7758,270.3371,0,U,65847,999,3989,.85383889E-3,.24996E-3,0
STARLINK-35308,2025-221AB,2026-06-08T08:11:33.193824,15.34391820,.0000884,53.1618,26.4887,97.1773,262.9330,0,U,65848,999,3997,.80656E-3,.26966E-3,0
